NORAD_CAT_ID,OBJECT_NAME,OBJECT_TYPE,EPOCH,MEAN_MOTION,ECCENTRICITY,INCLINATION,RA_OF_ASC_NODE,ARG_OF_PERICENTER,MEAN_ANOMALY,BSTAR,MEAN_MOTION_DOT,MEAN_MOTION_DDOT,TLE_LINE0,TLE_LINE1,TLE_LINE2,SEMIMAJOR_AXIS,PERIOD,APOGEE,PERIGEE,DECAYED
51755.0,STARLINK-3460,PAYLOAD,2024-04-24 02:27:26,15.08841172,0.0001702,53.2162,142.3469,108.5706,251.5471,-5.3403e-05,-1.138e-05,0.0,0 STARLINK-3460,1 51755U 22016AT  24115.10239340 -.00001138  00000-0 -53403-4 0  9993,2 51755  53.2162 142.3469 0001702 108.5706 251.5471 15.08841172121477,6917.877,95.437,540.919,538.564,0.0
51755.0,STARLINK-3460,PAYLOAD,2024-04-24 07:13:36,15.08840137,0.0001681,53.2177,141.4546,112.1076,248.0095,-2.3983e-05,-6.7e-06,0.0,0 STARLINK-3460,1 51755U 22016AT  24115.30111728 -.00000670  00000-0 -23983-4 0  9994,2 51755  53.2177 141.4546 0001681 112.1076 248.0095 15.08840137120388,6917.88,95.438,540.908,538.582,0.0
51755.0,STARLINK-3460,PAYLOAD,2024-04-25 05:29:00,15.088359,0.0001646,53.2177,137.295,112.4286,247.6881,6.7383e-05,7.84e-06,0.0,0 STARLINK-3460,1 51755U 22016AT  24116.22847773  .00000784  00000-0  67383-4 0  9998,2 51755  53.2177 137.2950 0001646 112.4286 247.6881 15.08835900121647,6917.893,95.438,540.897,538.619,0.0
51755.0,STARLINK-3460,PAYLOAD,2024-04-25 07:04:23,15.08836006,0.000165,53.2179,136.9978,112.5252,247.5915,6.5827e-05,7.6e-06,0.0,0 STARLINK-3460,1 51755U 22016AT  24116.29471788  .00000760  00000-0  65827-4 0  9999,2 51755  53.2179 136.9978 0001650 112.5252 247.5915 15.08836006120536,6917.893,95.438,540.899,538.616,0.0
51755.0,STARLINK-3460,PAYLOAD,2024-04-26 10:05:56,15.08840251,0.0001401,53.2173,131.9427,102.9777,257.1372,0.00010847,1.439e-05,0.0,0 STARLINK-3460,1 51755U 22016AT  24117.42079628  .00001439  00000-0  10847-3 0  9997,2 51755  53.2173 131.9427 0001401 102.9777 257.1372 15.08840251121827,6917.88,95.438,540.714,538.775,0.0
51755.0,STARLINK-3460,PAYLOAD,2024-04-27 06:45:57,15.08845592,0.0001388,53.2171,128.0781,91.226,268.8891,0.00012936,1.772e-05,0.0,0 STARLINK-3460,1 51755U 22016AT  24118.28191248  .00001772  00000-0  12936-3 0  9996,2 51755  53.2171 128.0781 0001388  91.2260 268.8891 15.08845592120834,6917.863,95.437,540.688,538.768,0.0
51755.0,STARLINK-3460,PAYLOAD,2024-04-27 17:53:38,15.08850558,0.000143,53.2173,125.9968,89.1989,270.9167,0.00012619,1.721e-05,0.0,0 STARLINK-3460,1 51755U 22016AT  24118.74558623  .00001721  00000-0  12619-3 0  9993,2 51755  53.2173 125.9968 0001430  89.1989 270.9167 15.08850558122022,6917.848,95.437,540.702,538.724,0.0
51755.0,STARLINK-3460,PAYLOAD,2024-04-28 00:15:11,15.08843338,0.0002013,53.217,124.8082,86.1706,273.9517,2.7734e-05,1.53e-06,0.0,0 STARLINK-3460,1 51755U 22016AT  24119.01055539  .00000153  00000-0  27734-4 0  9995,2 51755  53.2170 124.8082 0002013  86.1706 273.9517 15.08843338122060,6917.87,95.437,541.128,538.343,0.0
51755.0,STARLINK-3460,PAYLOAD,2024-04-28 06:36:45,15.08834211,0.0001389,53.2164,123.6178,93.5203,266.5948,-5.1803e-05,-1.112e-05,0.0,0 STARLINK-3460,1 51755U 22016AT  24119.27552086 -.00001112  00000-0 -51803-4 0  9994,2 51755  53.2164 123.6178 0001389  93.5203 266.5948 15.08834211122106,6917.898,95.438,540.724,538.802,0.0
51755.0,STARLINK-3460,PAYLOAD,2024-04-28 17:44:26,15.08840605,0.0001452,53.2168,121.5363,93.5839,266.5319,-2.8019e-05,-7.34e-06,0.0,0 STARLINK-3460,1 51755U 22016AT  24119.73919635 -.00000734  00000-0 -28019-4 0  9994,2 51755  53.2168 121.5363 0001452  93.5839 266.5319 15.08840605122172,6917.879,95.438,540.748,538.739,0.0
51755.0,STARLINK-3460,PAYLOAD,2024-04-29 09:38:17,15.08846811,0.000142,53.2168,118.5613,100.6767,259.4386,4.9151e-05,4.95e-06,0.0,0 STARLINK-3460,1 51755U 22016AT  24120.40158909  .00000495  00000-0  49151-4 0  9991,2 51755  53.2168 118.5613 0001420 100.6767 259.4386 15.08846811122272,6917.86,95.437,540.707,538.742,0.0
51755.0,STARLINK-3460,PAYLOAD,2024-04-30 04:42:55,15.08834205,0.0001428,53.217,114.9926,102.4155,257.6997,0.00014384,2.002e-05,0.0,0 STARLINK-3460,1 51755U 22016AT  24121.19647540  .00002002  00000-0  14384-3 0  9997,2 51755  53.2170 114.9926 0001428 102.4155 257.6997 15.08834205122396,6917.898,95.438,540.751,538.775,0.0
51755.0,STARLINK-3460,PAYLOAD,2024-04-30 06:18:18,15.0883338,0.0001397,53.2171,114.6962,99.1128,261.0023,0.00014072,1.952e-05,0.0,0 STARLINK-3460,1 51755U 22016AT  24121.26271680  .00001952  00000-0  14072-3 0  9990,2 51755  53.2171 114.6962 0001397  99.1128 261.0023 15.08833380121280,6917.901,95.438,540.732,538.799,0.0
51755.0,STARLINK-3460,PAYLOAD,2024-05-01 09:19:52,15.08840327,0.0001353,53.2174,109.6406,96.9877,263.1269,1.5491e-05,-4.1e-07,0.0,0 STARLINK-3460,1 51755U 22016AT  24122.38879662 -.00000041  00000-0  15491-4 0  9994,2 51755  53.2174 109.6406 0001353  96.9877 263.1269 15.08840327122575,6917.879,95.438,540.68,538.808,0.0
51755.0,STARLINK-3460,PAYLOAD,2024-05-01 15:41:24,15.08841399,0.0001353,53.2179,108.4523,95.5891,264.5256,4.2769e-05,3.93e-06,0.0,0 STARLINK-3460,1 51755U 22016AT  24122.65375462  .00000393  00000-0  42769-4 0  9990,2 51755  53.2179 108.4523 0001353  95.5891 264.5256 15.08841399121499,6917.876,95.437,540.677,538.805,0.0
51755.0,STARLINK-3460,PAYLOAD,2024-05-02 05:59:52,15.08838102,0.0001389,53.218,105.7768,97.053,263.0621,6.0182e-05,6.7e-06,0.0,0 STARLINK-3460,1 51755U 22016AT  24123.24991683  .00000670  00000-0  60182-4 0  9992,2 51755  53.2180 105.7768 0001389  97.0530 263.0621 15.08838102121586,6917.886,95.438,540.712,538.79,0.0
51755.0,STARLINK-3460,PAYLOAD,2024-05-02 21:53:44,15.08839261,0.000149,53.2186,102.8034,97.6813,262.4348,7.7156e-05,9.4e-06,0.0,0 STARLINK-3460,1 51755U 22016AT  24123.91231560  .00000940  00000-0  77156-4 0  9996,2 51755  53.2186 102.8034 0001490  97.6813 262.4348 15.08839261122801,6917.883,95.438,540.778,538.717,0.0
51755.0,STARLINK-3460,PAYLOAD,2024-05-03 07:26:02,15.08842061,0.000152,53.2188,101.0191,97.4277,262.6888,9.4298e-05,1.213e-05,0.0,0 STARLINK-3460,1 51755U 22016AT  24124.30975407  .00001213  00000-0  94298-4 0  9995,2 51755  53.2188 101.0191 0001520  97.4277 262.6888 15.08842061121749,6917.874,95.437,540.791,538.688,0.0
51755.0,STARLINK-3460,PAYLOAD,2024-05-03 15:22:57,15.08849319,0.0001547,53.219,99.5316,84.6402,275.4766,0.00012802,1.751e-05,0.0,0 STARLINK-3460,1 51755U 22016AT  24124.64094802  .00001751  00000-0  12802-3 0  9990,2 51755  53.2190  99.5316 0001547  84.6402 275.4766 15.08849319122919,6917.852,95.437,540.787,538.647,0.0
51755.0,STARLINK-3460,PAYLOAD,2024-05-04 04:06:05,15.08824265,0.000144,53.2189,97.1535,90.8148,269.3009,-8.8294e-05,-1.692e-05,0.0,0 STARLINK-3460,1 51755U 22016AT  24125.17089258 -.00001692  00000-0 -88294-4 0  9993,2 51755  53.2189  97.1535 0001440  90.8148 269.3009 15.08824265122995,6917.928,95.439,540.79,538.797,0.0
51755.0,STARLINK-3460,PAYLOAD,2024-05-04 15:13:46,15.08831529,0.0001454,53.2184,95.0715,87.9781,272.1378,-2.5054e-05,-6.87e-06,0.0,0 STARLINK-3460,1 51755U 22016AT  24125.63456984 -.00000687  00000-0 -25054-4 0  9996,2 51755  53.2184  95.0715 0001454  87.9781 272.1378 15.08831529123063,6917.906,95.438,540.777,538.765,0.0
51755.0,STARLINK-3460,PAYLOAD,2024-05-05 07:07:37,15.08843007,0.0001289,53.2176,92.0959,93.808,266.3059,7.6729e-05,9.34e-06,0.0,0 STARLINK-3460,1 51755U 22016AT  24126.29696327  .00000934  00000-0  76729-4 0  9994,2 51755  53.2176  92.0959 0001289  93.8080 266.3059 15.08843007123161,6917.871,95.437,540.628,538.844,0.0
51755.0,STARLINK-3460,PAYLOAD,2024-05-06 06:58:24,15.08856493,0.0001328,53.2165,87.6351,86.9769,273.1375,0.00052342,8.056e-05,0.0,0 STARLINK-3460,1 51755U 22016AT  24127.29055980  .00008056  00000-0  52342-3 0  9996,2 51755  53.2165  87.6351 0001328  86.9769 273.1375 15.08856493122198,6917.83,95.437,540.614,538.776,0.0
51755.0,STARLINK-3460,PAYLOAD,2024-05-06 14:55:19,15.08866695,0.0001374,53.2165,86.1494,84.429,275.6858,0.00062134,9.622e-05,0.0,0 STARLINK-3460,1 51755U 22016AT  24127.62175501  .00009622  00000-0  62134-3 0  9995,2 51755  53.2165  86.1494 0001374  84.4290 275.6858 15.08866695123361,6917.799,95.436,540.614,538.713,0.0
51755.0,STARLINK-3460,PAYLOAD,2024-05-07 03:38:24,15.08856282,0.0001463,53.2171,83.7693,101.8207,258.2949,0.00024943,3.686e-05,0.0,0 STARLINK-3460,1 51755U 22016AT  24128.15167464  .00003686  00000-0  24943-3 0  9993,2 51755  53.2171  83.7693 0001463 101.8207 258.2949 15.08856282123441,6917.831,95.437,540.708,538.684,0.0
51755.0,STARLINK-3460,PAYLOAD,2024-05-07 21:07:39,15.08845179,0.0001518,53.218,80.4993,94.8124,265.3041,0.00013778,1.906e-05,0.0,0 STARLINK-3460,1 51755U 22016AT  24128.88031612  .00001906  00000-0  13778-3 0  9995,2 51755  53.2180  80.4993 0001518  94.8124 265.3041 15.08845179123555,6917.865,95.437,540.78,538.679,0.0
51755.0,STARLINK-3460,PAYLOAD,2024-05-08 06:39:58,15.08842764,0.0001454,53.2185,78.7156,92.8645,267.2513,-8.5808e-05,-1.653e-05,0.0,0 STARLINK-3460,1 51755U 22016AT  24129.27775867 -.00001653  00000-0 -85808-4 0  9991,2 51755  53.2185  78.7156 0001454  92.8645 267.2513 15.08842764122490,6917.872,95.437,540.743,538.731,0.0
51755.0,STARLINK-3460,PAYLOAD,2024-05-09 03:19:59,15.08831332,0.0001296,53.218,74.8505,94.1973,265.9167,0.00022079,3.227e-05,0.0,0 STARLINK-3460,1 51755U 22016AT  24130.13888679  .00003227  00000-0  22079-3 0  9991,2 51755  53.2180  74.8505 0001296  94.1973 265.9167 15.08831332123741,6917.907,95.438,540.668,538.875,0.0
51755.0,STARLINK-3460,PAYLOAD,2024-05-09 12:52:17,15.0884798,0.000134,53.2187,73.0653,91.0803,269.0342,0.00015395,2.164e-05,0.0,0 STARLINK-3460,1 51755U 22016AT  24130.53631782  .00002164  00000-0  15395-3 0  9998,2 51755  53.2187  73.0653 0001340  91.0803 269.0342 15.08847980122689,6917.856,95.437,540.648,538.794,0.0
51755.0,STARLINK-3460,PAYLOAD,2024-05-10 03:10:46,15.08836136,0.000134,53.2187,70.3892,96.0646,264.0499,0.00012198,1.654e-05,0.0,0 STARLINK-3460,1 51755U 22016AT  24131.13248636  .00001654  00000-0  12198-3 0  9998,2 51755  53.2187  70.3892 0001340  96.0646 264.0499 15.08836136123897,6917.892,95.438,540.684,538.83,0.0
